[
  {
    "OBJECT_NAME": "STARLINK-5034",
    "OBJECT_ID": "22119C",
    "EPOCH": "2025-11-10T22:23:22.959168",
    "MEAN_MOTION": 15.0888258,
    "ECCENTRICITY": 0.0001515,
    "INCLINATION": 53.2148,
    "RA_OF_ASC_NODE": 137.4329,
    "ARG_OF_PERICENTER": 105.7794,
    "MEAN_ANOMALY": 254.3366,
    "EPHEMERIS_TYPE": 0,
    "CLASSIFICATION_TYPE": "U",
    "NORAD_CAT_ID": 53888,
    "ELEMENT_SET_NO": 999,
    "REV_AT_EPOCH": 17375,
    "BSTAR": 0.0,
    "MEAN_MOTION_DOT": -9.7e-05,
    "MEAN_MOTION_DDOT": 0.0,
    "TLE_LINE1": "1 53888U 22119C   25314.93290462 -.00009700  00000+0 -59144-3 0  9990",
    "TLE_LINE2": "2 53888  53.2148 137.4329 0001515 105.7794 254.3366 15.08882580173758",
    "COMMENT": "Grouped by shell and plane from TLE"
  },
  {
    "OBJECT_NAME": "STARLINK-5031",
    "OBJECT_ID": "22119D",
    "EPOCH": "2025-11-10T19:07:19.857504",
    "MEAN_MOTION": 15.08840157,
    "ECCENTRICITY": 0.0001696,
    "INCLINATION": 53.2157,
    "RA_OF_ASC_NODE": 138.0047,
    "ARG_OF_PERICENTER": 86.6063,
    "MEAN_ANOMALY": 273.5123,
    "EPHEMERIS_TYPE": 0,
    "CLASSIFICATION_TYPE": "U",
    "NORAD_CAT_ID": 53889,
    "ELEMENT_SET_NO": 999,
    "REV_AT_EPOCH": 17373,
    "BSTAR": 0.00010571,
    "MEAN_MOTION_DOT": 1.395e-05,
    "MEAN_MOTION_DDOT": 0.0,
    "TLE_LINE1": "1 53889U 22119D   25314.79675761  .00001395  00000+0  10571-3 0  9995",
    "TLE_LINE2": "2 53889  53.2157 138.0047 0001696  86.6063 273.5123 15.08840157173735",
    "COMMENT": "Grouped by shell and plane from TLE"
  },
  {
    "OBJECT_NAME": "STARLINK-5041",
    "OBJECT_ID": "22119F",
    "EPOCH": "2025-11-10T18:56:43.833408",
    "MEAN_MOTION": 15.08825345,
    "ECCENTRICITY": 0.0001063,
    "INCLINATION": 53.2203,
    "RA_OF_ASC_NODE": 137.9588,
    "ARG_OF_PERICENTER": 93.1704,
    "MEAN_ANOMALY": 266.941,
    "EPHEMERIS_TYPE": 0,
    "CLASSIFICATION_TYPE": "U",
    "NORAD_CAT_ID": 53891,
    "ELEMENT_SET_NO": 999,
    "REV_AT_EPOCH": 17373,
    "BSTAR": 0.00018572,
    "MEAN_MOTION_DOT": 2.668e-05,
    "MEAN_MOTION_DDOT": 0.0,
    "TLE_LINE1": "1 53891U 22119F   25314.78939622  .00002668  00000+0  18572-3 0  9999",
    "TLE_LINE2": "2 53891  53.2203 137.9588 0001063  93.1704 266.9410 15.08825345173738",
    "COMMENT": "Grouped by shell and plane from TLE"
  },
  {
    "OBJECT_NAME": "STARLINK-5046",
    "OBJECT_ID": "22119G",
    "EPOCH": "2025-11-10T21:40:58.052352",
    "MEAN_MOTION": 15.08850482,
    "ECCENTRICITY": 0.0001291,
    "INCLINATION": 53.2145,
    "RA_OF_ASC_NODE": 137.2482,
    "ARG_OF_PERICENTER": 88.439,
    "MEAN_ANOMALY": 271.675,
    "EPHEMERIS_TYPE": 0,
    "CLASSIFICATION_TYPE": "U",
    "NORAD_CAT_ID": 53892,
    "ELEMENT_SET_NO": 999,
    "REV_AT_EPOCH": 17375,
    "BSTAR": 0.0,
    "MEAN_MOTION_DOT": -3.075e-05,
    "MEAN_MOTION_DDOT": 0.0,
    "TLE_LINE1": "1 53892U 22119G   25314.90344968 -.00003075  00000+0 -17513-3 0  9996",
    "TLE_LINE2": "2 53892  53.2145 137.2482 0001291  88.4390 271.6750 15.08850482173753",
    "COMMENT": "Grouped by shell and plane from TLE"
  },
  {
    "OBJECT_NAME": "STARLINK-5052",
    "OBJECT_ID": "22119H",
    "EPOCH": "2025-11-11T05:55:11.034336",
    "MEAN_MOTION": 15.08849622,
    "ECCENTRICITY": 0.0001358,
    "INCLINATION": 53.2129,
    "RA_OF_ASC_NODE": 135.834,
    "ARG_OF_PERICENTER": 86.119,
    "MEAN_ANOMALY": 273.9958,
    "EPHEMERIS_TYPE": 0,
    "CLASSIFICATION_TYPE": "U",
    "NORAD_CAT_ID": 53893,
    "ELEMENT_SET_NO": 999,
    "REV_AT_EPOCH": 17380,
    "BSTAR": 0.0,
    "MEAN_MOTION_DOT": -6.86e-06,
    "MEAN_MOTION_DDOT": 0.0,
    "TLE_LINE1": "1 53893U 22119H   25315.24665549 -.00000686  00000+0 -24994-4 0  9993",
    "TLE_LINE2": "2 53893  53.2129 135.8340 0001358  86.1190 273.9958 15.08849622173805",
    "COMMENT": "Grouped by shell and plane from TLE"
  },
  {
    "OBJECT_NAME": "STARLINK-5043",
    "OBJECT_ID": "22119J",
    "EPOCH": "2025-11-10T18:51:24.701184",
    "MEAN_MOTION": 15.08849011,
    "ECCENTRICITY": 0.0001366,
    "INCLINATION": 53.2158,
    "RA_OF_ASC_NODE": 137.9355,
    "ARG_OF_PERICENTER": 89.0967,
    "MEAN_ANOMALY": 271.0182,
    "EPHEMERIS_TYPE": 0,
    "CLASSIFICATION_TYPE": "U",
    "NORAD_CAT_ID": 53894,
    "ELEMENT_SET_NO": 999,
    "REV_AT_EPOCH": 17373,
    "BSTAR": 0.00021305,
    "MEAN_MOTION_DOT": 3.105e-05,
    "MEAN_MOTION_DDOT": 0.0,
    "TLE_LINE1": "1 53894U 22119J   25314.78570256  .00003105  00000+0  21305-3 0  9991",
    "TLE_LINE2": "2 53894  53.2158 137.9355 0001366  89.0967 271.0182 15.08849011173732",
    "COMMENT": "Grouped by shell and plane from TLE"
  },
  {
    "OBJECT_NAME": "STARLINK-5032",
    "OBJECT_ID": "22119K",
    "EPOCH": "2025-11-11T05:43:11.476128",
    "MEAN_MOTION": 15.08841992,
    "ECCENTRICITY": 0.0001143,
    "INCLINATION": 53.2157,
    "RA_OF_ASC_NODE": 135.7845,
    "ARG_OF_PERICENTER": 99.3199,
    "MEAN_ANOMALY": 260.7923,
    "EPHEMERIS_TYPE": 0,
    "CLASSIFICATION_TYPE": "U",
    "NORAD_CAT_ID": 53895,
    "ELEMENT_SET_NO": 999,
    "REV_AT_EPOCH": 17380,
    "BSTAR": 1.3049e-05,
    "MEAN_MOTION_DOT": -8e-07,
    "MEAN_MOTION_DDOT": 0.0,
    "TLE_LINE1": "1 53895U 22119K   25315.23832727 -.00000080  00000+0  13049-4 0  9994",
    "TLE_LINE2": "2 53895  53.2157 135.7845 0001143  99.3199 260.7923 15.08841992173802",
    "COMMENT": "Grouped by shell and plane from TLE"
  },
  {
    "OBJECT_NAME": "STARLINK-5037",
    "OBJECT_ID": "22119L",
    "EPOCH": "2025-11-11T05:32:34.909440",
    "MEAN_MOTION": 15.08840545,
    "ECCENTRICITY": 0.0001494,
    "INCLINATION": 53.2146,
    "RA_OF_ASC_NODE": 135.7393,
    "ARG_OF_PERICENTER": 91.592,
    "MEAN_ANOMALY": 268.5244,
    "EPHEMERIS_TYPE": 0,
    "CLASSIFICATION_TYPE": "U",
    "NORAD_CAT_ID": 53896,
    "ELEMENT_SET_NO": 999,
    "REV_AT_EPOCH": 17380,
    "BSTAR": 3.9033000000000004e-05,
    "MEAN_MOTION_DOT": 3.33e-06,
    "MEAN_MOTION_DDOT": 0.0,
    "TLE_LINE1": "1 53896U 22119L   25315.23095960  .00000333  00000+0  39033-4 0  9996",
    "TLE_LINE2": "2 53896  53.2146 135.7393 0001494  91.5920 268.5244 15.08840545173809",
    "COMMENT": "Grouped by shell and plane from TLE"
  },
  {
    "OBJECT_NAME": "STARLINK-5035",
    "OBJECT_ID": "22119M",
    "EPOCH": "2025-11-11T05:53:48.083424",
    "MEAN_MOTION": 15.08850913,
    "ECCENTRICITY": 0.0001483,
    "INCLINATION": 53.2152,
    "RA_OF_ASC_NODE": 135.8305,
    "ARG_OF_PERICENTER": 88.5435,
    "MEAN_ANOMALY": 271.5727,
    "EPHEMERIS_TYPE": 0,
    "CLASSIFICATION_TYPE": "U",
    "NORAD_CAT_ID": 53897,
    "ELEMENT_SET_NO": 999,
    "REV_AT_EPOCH": 17380,
    "BSTAR": 7.8408e-05,
    "MEAN_MOTION_DOT": 9.6e-06,
    "MEAN_MOTION_DDOT": 0.0,
    "TLE_LINE1": "1 53897U 22119M   25315.24569541  .00000960  00000+0  78408-4 0  9994",
    "TLE_LINE2": "2 53897  53.2152 135.8305 0001483  88.5435 271.5727 15.08850913173806",
    "COMMENT": "Grouped by shell and plane from TLE"
  },
  {
    "OBJECT_NAME": "STARLINK-5044",
    "OBJECT_ID": "22119N",
    "EPOCH": "2025-11-11T05:16:40.531584",
    "MEAN_MOTION": 15.08850176,
    "ECCENTRICITY": 5.44e-05,
    "INCLINATION": 53.2149,
    "RA_OF_ASC_NODE": 135.6704,
    "ARG_OF_PERICENTER": 143.2493,
    "MEAN_ANOMALY": 216.8537,
    "EPHEMERIS_TYPE": 0,
    "CLASSIFICATION_TYPE": "U",
    "NORAD_CAT_ID": 53898,
    "ELEMENT_SET_NO": 999,
    "REV_AT_EPOCH": 17380,
    "BSTAR": 0.00012868,
    "MEAN_MOTION_DOT": 1.761e-05,
    "MEAN_MOTION_DDOT": 0.0,
    "TLE_LINE1": "1 53898U 22119N   25315.21991356  .00001761  00000+0  12868-3 0  9992",
    "TLE_LINE2": "2 53898  53.2149 135.6704 0000544 143.2493 216.8537 15.08850176173806",
    "COMMENT": "Grouped by shell and plane from TLE"
  },
  {
    "OBJECT_NAME": "STARLINK-5042",
    "OBJECT_ID": "22119P",
    "EPOCH": "2025-11-11T05:21:58.443840",
    "MEAN_MOTION": 15.08844078,
    "ECCENTRICITY": 0.0001342,
    "INCLINATION": 53.2143,
    "RA_OF_ASC_NODE": 135.6929,
    "ARG_OF_PERICENTER": 87.7266,
    "MEAN_ANOMALY": 272.388,
    "EPHEMERIS_TYPE": 0,
    "CLASSIFICATION_TYPE": "U",
    "NORAD_CAT_ID": 53899,
    "ELEMENT_SET_NO": 999,
    "REV_AT_EPOCH": 17380,
    "BSTAR": 0.0002491,
    "MEAN_MOTION_DOT": 3.679e-05,
    "MEAN_MOTION_DDOT": 0.0,
    "TLE_LINE1": "1 53899U 22119P   25315.22359310  .00003679  00000+0  24910-3 0  9993",
    "TLE_LINE2": "2 53899  53.2143 135.6929 0001342  87.7266 272.3880 15.08844078173809",
    "COMMENT": "Grouped by shell and plane from TLE"
  },
  {
    "OBJECT_NAME": "STARLINK-5045",
    "OBJECT_ID": "22119Q",
    "EPOCH": "2025-11-11T05:06:04.350240",
    "MEAN_MOTION": 15.08825628,
    "ECCENTRICITY": 0.0001524,
    "INCLINATION": 53.2167,
    "RA_OF_ASC_NODE": 135.6262,
    "ARG_OF_PERICENTER": 94.9246,
    "MEAN_ANOMALY": 265.192,
    "EPHEMERIS_TYPE": 0,
    "CLASSIFICATION_TYPE": "U",
    "NORAD_CAT_ID": 53900,
    "ELEMENT_SET_NO": 999,
    "REV_AT_EPOCH": 17380,
    "BSTAR": 0.0,
    "MEAN_MOTION_DOT": -1.248e-05,
    "MEAN_MOTION_DDOT": 0.0,
    "TLE_LINE1": "1 53900U 22119Q   25315.21255035 -.00001248  00000+0 -60326-4 0  9998",
    "TLE_LINE2": "2 53900  53.2167 135.6262 0001524  94.9246 265.1920 15.08825628173803",
    "COMMENT": "Grouped by shell and plane from TLE"
  },
  {
    "OBJECT_NAME": "STARLINK-5022",
    "OBJECT_ID": "22119T",
    "EPOCH": "2025-11-11T05:28:39.288864",
    "MEAN_MOTION": 15.08836177,
    "ECCENTRICITY": 0.0001178,
    "INCLINATION": 53.2146,
    "RA_OF_ASC_NODE": 135.7205,
    "ARG_OF_PERICENTER": 88.8304,
    "MEAN_ANOMALY": 271.2823,
    "EPHEMERIS_TYPE": 0,
    "CLASSIFICATION_TYPE": "U",
    "NORAD_CAT_ID": 53903,
    "ELEMENT_SET_NO": 999,
    "REV_AT_EPOCH": 17380,
    "BSTAR": 0.00010006,
    "MEAN_MOTION_DOT": 1.305e-05,
    "MEAN_MOTION_DDOT": 0.0,
    "TLE_LINE1": "1 53903U 22119T   25315.22823251  .00001305  00000+0  10006-3 0  9994",
    "TLE_LINE2": "2 53903  53.2146 135.7205 0001178  88.8304 271.2823 15.08836177173804",
    "COMMENT": "Grouped by shell and plane from TLE"
  }
]